GLOBALSTAR M069         
1 31573U 07020C   26196.31275392 -.00000114  00000+0 -19912-3 0  9996
2 31573  52.0010 172.5192 0001651 210.5573 290.1472 12.23472227882243
GLOBALSTAR M072         
1 31574U 07020D   26196.00751098 -.00000070  00000+0  19544-3 0  9996
2 31574  51.9948  26.1802 0001655  35.0951 131.6363 11.91658796878297
GLOBALSTAR M066         
1 32265U 07048C   26196.66044347 -.00000052  00000+0  36375-3 0  9999
2 32265  51.9609 336.1749 0005594 102.7371 269.9817 12.30389489863733
GLOBALSTAR M079         
1 37188U 10054A   26195.86075347 -.00000102  00000+0  91912-5 0  9990
2 37188  52.0053  24.4276 0001119  77.0818  29.8542 12.62266417726048
GLOBALSTAR M074         
1 37189U 10054B   26196.50101611 -.00000103  00000+0  25416-5 0  9994
2 37189  52.0031  21.7395 0000866  93.2012 284.5754 12.62262020726738
GLOBALSTAR M076         
1 37190U 10054C   26196.44573637 -.00000086  00000+0  99694-4 0  9998
2 37190  52.0044  22.1135 0001092  93.3199 273.0422 12.62262423726440
GLOBALSTAR M077         
1 37191U 10054D   26196.13813914 -.00000100  00000+0 -39887-3 0  9995
2 37191  51.9955 108.3514 0002271 225.1845 282.4065 11.67547472724406
GLOBALSTAR M075         
1 37192U 10054E   26196.01329294 -.00000090  00000+0  76821-4 0  9993
2 37192  51.9953  65.4683 0000750  64.7636  76.0712 12.62267841725457
GLOBALSTAR M073         
1 37193U 10054F   26196.55416321 -.00000108  00000+0 -23289-4 0  9992
2 37193  52.0081 337.9443 0001059  96.7113 341.4488 12.62266867727516
GLOBALSTAR M083         
1 37739U 11033A   26196.57281197 -.00000074  00000+0  16682-3 0  9998
2 37739  51.9866 286.0787 0000770 107.2171 357.0003 12.62264174696539
GLOBALSTAR M088         
1 37740U 11033B   26196.40324542 -.00000111  00000+0 -38673-4 0  9992
2 37740  52.0185 193.0889 0000049 116.6221  55.3886 12.62269477692057
GLOBALSTAR M091         
1 37741U 11033C   26196.65357742 -.00000121  00000+0 -98039-4 0  9991
2 37741  51.9981 155.2505 0000433  24.3021 146.4094 12.62264251692873
GLOBALSTAR M085         
1 37742U 11033D   26196.15994703 -.00000101  00000+0  17363-4 0  9999
2 37742  52.0123 108.0701 0000777  40.8993 105.6049 12.62264320693325
GLOBALSTAR M081         
1 37743U 11033E   26196.27176979 -.00000108  00000+0 -25303-4 0  9991
2 37743  51.9952 110.1337 0000668  54.9350 119.8013 12.62265266693480
GLOBALSTAR M089         
1 37744U 11033F   26196.07119714 -.00000090  00000+0  77649-4 0  9993
2 37744  51.9936  64.8979 0000697  89.4454  74.5153 12.62267582694307
GLOBALSTAR M084         
1 38040U 11080A   26196.46204899 -.00000085  00000+0  10404-3 0  9996
2 38040  52.0021 291.2057 0000824 129.9842 310.7473 12.62263504672339
GLOBALSTAR M080         
1 38041U 11080B   26196.43294816 -.00000083  00000+0  11595-3 0  9992
2 38041  52.0069 293.0224 0000298  83.1716 355.0622 12.62257435672451
GLOBALSTAR M082         
1 38042U 11080C   26196.45370036 -.00000072  00000+0  17723-3 0  9991
2 38042  52.0062 248.4631 0000194  88.4428  14.0807 12.62264246673168
GLOBALSTAR M092         
1 38043U 11080D   26196.32924309 -.00000088  00000+0  86220-4 0  9992
2 38043  52.0105 339.2389 0000781 102.9740 273.0846 12.62267808671601
GLOBALSTAR M090         
1 38044U 11080E   26196.31700969 -.00000053  00000+0  28459-3 0  9997
2 38044  52.0106 242.8440 0000427  91.1185 348.7415 12.62269578673261
GLOBALSTAR M086         
1 38045U 11080F   26196.42344416 -.00000087  00000+0  91631-4 0  9991
2 38045  51.9879 242.4025 0001511 112.0880 355.3845 12.62287762673224
GLOBALSTAR M097         
1 39072U 13005A   26196.27322908 -.00000127  00000+0 -12925-3 0  9990
2 39072  52.0027 157.8386 0000444  40.0148 320.0752 12.62271384620458
GLOBALSTAR M093         
1 39073U 13005B   26196.24646311 -.00000120  00000+0 -88022-4 0  9990
2 39073  52.0089 151.2776 0000652  44.1868 315.9050 12.62266324620400
GLOBALSTAR M094         
1 39074U 13005C   26196.00876541 -.00000104  00000+0 -13186-5 0  9997
2 39074  51.9973  66.0909 0000989  62.0103 298.0864 12.62264165621985
GLOBALSTAR M096         
1 39075U 13005D   26196.18066089 -.00000102  00000+0  90279-5 0  9990
2 39075  52.0070 114.3905 0000742  41.7537 318.3386 12.62265715620921
GLOBALSTAR M078         
1 39076U 13005E   26196.31215665 -.00000113  00000+0 -53690-4 0  9990
2 39076  51.9844 197.9620 0000836 338.5356  21.5475 12.62260155619563
GLOBALSTAR M095         
1 39077U 13005F   26196.41802070 -.00000115  00000+0 -61876-4 0  9991
2 39077  52.0055 195.2834 0000455  13.0160 347.0719 12.62264158619433
GLOBALSTAR M087         
1 52888U 22064A   26196.35194804 -.00000103  00000+0  15911-5 0  9999
2 52888  52.0013 336.7066 0000904  85.9295 274.1675 12.62269278194692
